start=new Date('2021-08-28T00:00:00.000Z').valueOf();
sats=[{"EPOCH":"2021-08-27T17:50:43.400832","APOAPSIS":"547.819","INCLINATION":"53.0542","TIME_SYSTEM":"UTC","OBJECT_ID":"2021-009AH","MEAN_ELEMENT_THEORY":"SGP4","TLE_LINE1":"1 47579U 21009AH  21239.74355788  .00000772  00000-0  70678-4 0  9996","GP_ID":"183556633","SITE":"AFETR","OBJECT_TYPE":"PAYLOAD","COUNTRY_CODE":"US","RA_OF_ASC_NODE":"240.9520","REF_FRAME":"TEME","MEAN_MOTION_DOT":"0.00000772","MEAN_ANOMALY":"293.5288","ELEMENT_SET_NO":"999","SEMIMAJOR_AXIS":"6925.357","ARG_OF_PERICENTER":"66.5791","PERIOD":"95.592","ECCENTRICITY":"0.00008610","DECAY_DATE":null,"MEAN_MOTION_DDOT":"0.0000000000000","LAUNCH_DATE":"2021-02-04","FILE":"3104038","EPHEMERIS_TYPE":"0","RCS_SIZE":"LARGE","PERIAPSIS":"546.626","CENTER_NAME":"EARTH","BSTAR":"0.00007067800000","TLE_LINE2":"2 47579  53.0542 240.9520 0000861  66.5791 293.5288 15.06397139 31492","CLASSIFICATION_TYPE":"U","OBJECT_NAME":"STARLINK-1981","REV_AT_EPOCH":"3149","MEAN_MOTION":"15.06397139","NORAD_CAT_ID":"47579"},{"OBJECT_NAME":"STARLINK-1982","CLASSIFICATION_TYPE":"U","MEAN_MOTION":"15.06399569","NORAD_CAT_ID":"47580","REV_AT_EPOCH":"3135","MEAN_MOTION_DDOT":"0.0000000000000","DECAY_DATE":null,"ECCENTRICITY":"0.00004860","BSTAR":"0.00009071700000","TLE_LINE2":"2 47580  53.0526 250.8603 0000486  24.0341 336.0671 15.06399569 31354","PERIAPSIS":"546.878","FILE":"3104038","RCS_SIZE":"LARGE","EPHEMERIS_TYPE":"0","CENTER_NAME":"EARTH","LAUNCH_DATE":"2021-02-04","RA_OF_ASC_NODE":"250.8603","REF_FRAME":"TEME","MEAN_MOTION_DOT":"0.00001070","SEMIMAJOR_AXIS":"6925.350","ARG_OF_PERICENTER":"24.0341","PERIOD":"95.592","ELEMENT_SET_NO":"999","MEAN_ANOMALY":"336.0671","TLE_LINE1":"1 47580U 21009AJ  21239.76474650  .00001070  00000-0  90717-4 0  9998","GP_ID":"183556368","TIME_SYSTEM":"UTC","OBJECT_ID":"2021-009AJ","MEAN_ELEMENT_THEORY":"SGP4","EPOCH":"2021-08-27T18:21:14.097600","APOAPSIS":"547.551","INCLINATION":"53.0526","COUNTRY_CODE":"US","SITE":"AFETR","OBJECT_TYPE":"PAYLOAD"},{"PERIOD":"95.591","SEMIMAJOR_AXIS":"6925.316","ARG_OF_PERICENTER":"56.8468","MEAN_ANOMALY":"303.2637","ELEMENT_SET_NO":"999","MEAN_MOTION_DOT":"-0.00001533","RA_OF_ASC_NODE":"232.7272","REF_FRAME":"TEME","COUNTRY_CODE":"US","OBJECT_TYPE":"PAYLOAD","SITE":"AFETR","MEAN_ELEMENT_THEORY":"SGP4","TIME_SYSTEM":"UTC","OBJECT_ID":"2021-009AK","GP_ID":"183529853","TLE_LINE1":"1 47581U 21009AK  21239.34638311 -.00001533  00000-0 -84041-4 0  9998","APOAPSIS":"548.019","INCLINATION":"53.0549","EPOCH":"2021-08-27T08:18:47.500704","REV_AT_EPOCH":"3157","NORAD_CAT_ID":"47581","MEAN_MOTION":"15.06410760","OBJECT_NAME":"STARLINK-1984","CLASSIFICATION_TYPE":"U","FILE":"3103885","PERIAPSIS":"546.343","RCS_SIZE":"LARGE","CENTER_NAME":"EARTH","EPHEMERIS_TYPE":"0","TLE_LINE2":"2 47581  53.0549 232.7272 0001210  56.8468 303.2637 15.06410760 31579","BSTAR":"-0.00008404100000","LAUNCH_DATE":"2021-02-04","DECAY_DATE":null,"MEAN_MOTION_DDOT":"0.0000000000000","ECCENTRICITY":"0.00012100"},{"APOAPSIS":"547.676","INCLINATION":"53.0553","EPOCH":"2021-08-27T17:33:29.492640","MEAN_ELEMENT_THEORY":"SGP4","OBJECT_ID":"2021-009AL","TIME_SYSTEM":"UTC","GP_ID":"183557352","TLE_LINE1":"1 47582U 21009AL  21239.73159135  .00000804  00000-0  72844-4 0  9990","OBJECT_TYPE":"PAYLOAD","SITE":"AFETR","COUNTRY_CODE":"US","MEAN_MOTION_DOT":"0.00000804","RA_OF_ASC_NODE":"251.0082","REF_FRAME":"TEME","ELEMENT_SET_NO":"999","MEAN_ANOMALY":"306.1215","PERIOD":"95.592","SEMIMAJOR_AXIS":"6925.363","ARG_OF_PERICENTER":"53.9834","ECCENTRICITY":"0.00006470","DECAY_DATE":null,"MEAN_MOTION_DDOT":"0.0000000000000","LAUNCH_DATE":"2021-02-04","RCS_SIZE":"LARGE","FILE":"3104038","EPHEMERIS_TYPE":"0","PERIAPSIS":"546.780","CENTER_NAME":"EARTH","TLE_LINE2":"2 47582  53.0553 251.0082 0000647  53.9834 306.1215 15.06395386 31352","BSTAR":"0.00007284400000","CLASSIFICATION_TYPE":"U","OBJECT_NAME":"STARLINK-1986","REV_AT_EPOCH":"3135","NORAD_CAT_ID":"47582","MEAN_MOTION":"15.06395386"},{"LAUNCH_DATE":"2021-02-04","BSTAR":"0.00008153500000","TLE_LINE2":"2 47583  53.0551 252.0067 0000332  53.0523 307.0496 15.06399464 31321","FILE":"3103885","EPHEMERIS_TYPE":"0","RCS_SIZE":"LARGE","PERIAPSIS":"546.985","CENTER_NAME":"EARTH","ECCENTRICITY":"0.00003320","MEAN_MOTION_DDOT":"0.0000000000000","DECAY_DATE":null,"MEAN_MOTION":"15.06399464","NORAD_CAT_ID":"47583","REV_AT_EPOCH":"3132","CLASSIFICATION_TYPE":"U","OBJECT_NAME":"STARLINK-1987","SITE":"AFETR","OBJECT_TYPE":"PAYLOAD","COUNTRY_CODE":"US","EPOCH":"2021-08-27T12:15:00.213696","APOAPSIS":"547.445","INCLINATION":"53.0551","TLE_LINE1":"1 47583U 21009AM  21239.51041914  .00000934  00000-0  81535-4 0  9993","GP_ID":"183530828","TIME_SYSTEM":"UTC","OBJECT_ID":"2021-009AM","MEAN_ELEMENT_THEORY":"SGP4","ELEMENT_SET_NO":"999","MEAN_ANOMALY":"307.0496","ARG_OF_PERICENTER":"53.0523","SEMIMAJOR_AXIS":"6925.350","PERIOD":"95.592","RA_OF_ASC_NODE":"252.0067","REF_FRAME":"TEME","MEAN_MOTION_DOT":"0.00000934"},{"LAUNCH_DATE":"2021-02-04","TLE_LINE2":"2 47584  53.0521 205.5900 0005338 348.2462  11.8426 15.62734233 31951","BSTAR":"-0.00008045900000","RCS_SIZE":"LARGE","FILE":"3103885","PERIAPSIS":"376.158","CENTER_NAME":"EARTH","EPHEMERIS_TYPE":"0","ECCENTRICITY":"0.00053380","MEAN_MOTION_DDOT":"0.0000000000000","DECAY_DATE":null,"NORAD_CAT_ID":"47584","MEAN_MOTION":"15.62734233","REV_AT_EPOCH":"3195","CLASSIFICATION_TYPE":"U","OBJECT_NAME":"STARLINK-1988","OBJECT_TYPE":"PAYLOAD","SITE":"AFETR","COUNTRY_CODE":"US","INCLINATION":"53.0521","APOAPSIS":"383.372","EPOCH":"2021-08-27T07:19:14.578176","GP_ID":"183530103","TLE_LINE1":"1 47584U 21009AN  21239.30502984 -.00007899  00000-0 -80459-4 0  9993","MEAN_ELEMENT_THEORY":"SGP4","TIME_SYSTEM":"UTC","OBJECT_ID":"2021-009AN","MEAN_ANOMALY":"11.8426","ELEMENT_SET_NO":"999","PERIOD":"92.146","SEMIMAJOR_AXIS":"6757.900","ARG_OF_PERICENTER":"348.2462","MEAN_MOTION_DOT":"-0.00007899","RA_OF_ASC_NODE":"205.5900","REF_FRAME":"TEME"},{"REF_FRAME":"TEME","RA_OF_ASC_NODE":"250.9894","MEAN_MOTION_DOT":"0.00000665","ARG_OF_PERICENTER":"179.6800","SEMIMAJOR_AXIS":"6925.343","PERIOD":"95.592","ELEMENT_SET_NO":"999","MEAN_ANOMALY":"180.4195","TIME_SYSTEM":"UTC","OBJECT_ID":"2021-009AP","MEAN_ELEMENT_THEORY":"SGP4","TLE_LINE1":"1 47585U 21009AP  21239.73526151  .00000665  00000-0  63654-4 0  9993","GP_ID":"183557120","EPOCH":"2021-08-27T17:38:46.594464","APOAPSIS":"551.948","INCLINATION":"53.0542","COUNTRY_CODE":"US","SITE":"AFETR","OBJECT_TYPE":"PAYLOAD","OBJECT_NAME":"STARLINK-1989","CLASSIFICATION_TYPE":"U","REV_AT_EPOCH":"3135","MEAN_MOTION":"15.06401973","NORAD_CAT_ID":"47585","DECAY_DATE":null,"MEAN_MOTION_DDOT":"0.0000000000000","ECCENTRICITY":"0.00068450","RCS_SIZE":"LARGE","FILE":"3104038","CENTER_NAME":"EARTH","PERIAPSIS":"542.467","EPHEMERIS_TYPE":"0","BSTAR":"0.00006365400000","TLE_LINE2":"2 47585  53.0542 250.9894 0006845 179.6800 180.4195 15.06401973 31357","LAUNCH_DATE":"2021-02-04"},{"CLASSIFICATION_TYPE":"U","OBJECT_NAME":"STARLINK-1990","REV_AT_EPOCH":"3108","NORAD_CAT_ID":"47586","MEAN_MOTION":"15.06390704","ECCENTRICITY":"0.00008840","DECAY_DATE":null,"MEAN_MOTION_DDOT":"0.0000000000000","LAUNCH_DATE":"2021-02-04","PERIAPSIS":"546.630","FILE":"3104038","RCS_SIZE":"LARGE","CENTER_NAME":"EARTH","EPHEMERIS_TYPE":"0","TLE_LINE2":"2 47586  53.0544 270.7650 0000884  75.8429 284.2658 15.06390704 31087","BSTAR":"-0.00006004900000","MEAN_MOTION_DOT":"-0.00001175","REF_FRAME":"TEME","RA_OF_ASC_NODE":"270.7650","ELEMENT_SET_NO":"999","MEAN_ANOMALY":"284.2658","PERIOD":"95.593","ARG_OF_PERICENTER":"75.8429","SEMIMAJOR_AXIS":"6925.377","APOAPSIS":"547.854","INCLINATION":"53.0544","EPOCH":"2021-08-27T18:50:25.580256","MEAN_ELEMENT_THEORY":"SGP4","TIME_SYSTEM":"UTC","OBJECT_ID":"2021-009AQ","GP_ID":"183557867","TLE_LINE1":"1 47586U 21009AQ  21239.78501829 -.00001175  00000-0 -60049-4 0  9998","OBJECT_TYPE":"PAYLOAD","SITE":"AFETR","COUNTRY_CODE":"US"},{"INCLINATION":"53.0546","APOAPSIS":"547.446","EPOCH":"2021-08-27T12:21:40.002048","GP_ID":"183531328","TLE_LINE1":"1 47587U 21009AR  21239.51504632  .00000900  00000-0  79282-4 0  9997","MEAN_ELEMENT_THEORY":"SGP4","OBJECT_ID":"2021-009AR","TIME_SYSTEM":"UTC","OBJECT_TYPE":"PAYLOAD","SITE":"AFETR","COUNTRY_CODE":"US","MEAN_MOTION_DOT":"0.00000900","RA_OF_ASC_NODE":"241.9789","REF_FRAME":"TEME","MEAN_ANOMALY":"343.0870","ELEMENT_SET_NO":"999","PERIOD":"95.593","SEMIMAJOR_AXIS":"6925.380","ARG_OF_PERICENTER":"17.0129","ECCENTRICITY":"0.00002900","MEAN_MOTION_DDOT":"0.0000000000000","DECAY_DATE":null,"LAUNCH_DATE":"2021-02-04","TLE_LINE2":"2 47587  53.0546 241.9789 0000290  17.0129 343.0870 15.06389679 31460","BSTAR":"0.00007928200000","RCS_SIZE":"LARGE","FILE":"3103885","PERIAPSIS":"547.044","EPHEMERIS_TYPE":"0","CENTER_NAME":"EARTH","CLASSIFICATION_TYPE":"U","OBJECT_NAME":"STARLINK-1991","NORAD_CAT_ID":"47587","MEAN_MOTION":"15.06389679","REV_AT_EPOCH":"3146"},{"TLE_LINE2":"2 47588  53.0546 250.8410 0000488  57.9208 302.1828 15.06399498 31369","BSTAR":"0.00005839400000","FILE":"3104038","RCS_SIZE":"LARGE","EPHEMERIS_TYPE":"0","PERIAPSIS":"546.877","CENTER_NAME":"EARTH","LAUNCH_DATE":"2021-02-04","MEAN_MOTION_DDOT":"0.0000000000000","DECAY_DATE":null,"ECCENTRICITY":"0.00004880","NORAD_CAT_ID":"47588","MEAN_MOTION":"15.06399498","REV_AT_EPOCH":"3136","OBJECT_NAME":"STARLINK-1993","CLASSIFICATION_TYPE":"U","COUNTRY_CODE":"US","OBJECT_TYPE":"PAYLOAD","SITE":"AFETR","GP_ID":"183556369","TLE_LINE1":"1 47588U 21009AS  21239.77212000  .00000589  00000-0  58394-4 0  9995","MEAN_ELEMENT_THEORY":"SGP4","TIME_SYSTEM":"UTC","OBJECT_ID":"2021-009AS","INCLINATION":"53.0546","APOAPSIS":"547.553","EPOCH":"2021-08-27T18:31:51.168000","PERIOD":"95.592","ARG_OF_PERICENTER":"57.9208","SEMIMAJOR_AXIS":"6925.350","MEAN_ANOMALY":"302.1828","ELEMENT_SET_NO":"999","MEAN_MOTION_DOT":"0.00000589","RA_OF_ASC_NODE":"250.8410","REF_FRAME":"TEME"}];
